IRIDIUM 150             
1 43257U 18030J   23306.78452794  .00000455  00000+0  15529-3 0  9991
2 43257  86.3958 330.6116 0002126 102.0952 258.0482 14.34216662292931
IRIDIUM 143             
1 43258U 18030K   23307.46320093  .00000394  00000+0  13346-3 0  9991
2 43258  86.3961 330.3822 0002398  96.2714 263.8755 14.34214666292993
IRIDIUM 161             
1 43478U 18047C   23306.91802046  .00000203  00000+0  54444-4 0  9999
2 43478  86.4461 128.5835 0002006  89.3853 270.7578 14.43275523287068
IRIDIUM 152             
1 43479U 18047D   23307.43592423  .00000151  00000+0  47006-4 0  9991
2 43479  86.3935 128.2267 0002323  91.0415 269.1047 14.34220044285368
IRIDIUM 147             
1 43480U 18047E   23307.02363518  .00000030  00000+0  38002-5 0  9992
2 43480  86.3938 128.3876 0001878  84.4824 275.6586 14.34215957285293
IRIDIUM 110             
1 43481U 18047F   23307.02997330  .00000156  00000+0  48524-4 0  9996
2 43481  86.3938 128.4517 0001756  86.6384 273.5013 14.34218397285289
IRIDIUM 162             
1 43482U 18047G   23306.91176998  .00000207  00000+0  55611-4 0  9995
2 43482  86.4460 128.4893 0002025  89.2129 270.9304 14.43281049287059
IRIDIUM 160             
1 43569U 18061A   23307.18511582  .00000404  00000+0  13716-3 0  9997
2 43569  86.3931  96.7433 0002255  85.3699 274.7754 14.34221856276204
